{
  "type": "FeatureCollection",
  "features": [
    {
      "type": "Feature",
      "properties": {
        "norad_id": 36046,
        "name": "COSMOS 2251 DEB",
        "group": "cosmos-2251-debris",
        "lat": -17.102392248169597,
        "lon": 100.7598563524577,
        "alt_km": 708.9010635965606,
        "timestamp": "2025-12-13T03:42:11.669108+00:00",
        "meta_object_name": "COSMOS 2251 DEB",
        "meta_object_id": "1993-036AXH",
        "meta_epoch": "2025-12-11T13:55:44.742144",
        "meta_mean_motion": 14.65256502,
        "meta_eccentricity": 0.00555409,
        "meta_inclination": 74.0167,
        "meta_ra_of_asc_node": 278.7315,
        "meta_arg_of_pericenter": 65.0167,
        "meta_mean_anomaly": 113.2928,
        "meta_ephemeris_type": 0,
        "meta_classification_type": "U",
        "meta_norad_cat_id": 36046,
        "meta_element_set_no": 999,
        "meta_rev_at_epoch": 63986,
        "meta_bstar": 0.001021587,
        "meta_mean_motion_dot": 5.605e-05,
        "meta_mean_motion_ddot": 0,
        "tle_line1": "1 36046U 93036AXH 25345.58037896  .00005605  00000+0  10216-2 0  9992",
        "tle_line2": "2 36046  74.0167 278.7315 0055540  65.0167 113.2928 14.65256502639867"
      },
      "geometry": {
        "type": "Point",
        "coordinates": [
          100.7598563524577,
          -17.102392248169597
        ]
      }
    },
    {
      "type": "Feature",
      "properties": {
        "norad_id": 36047,
        "name": "COSMOS 2251 DEB",
        "group": "cosmos-2251-debris",
        "lat": 4.9086681476958764,
        "lon": 151.91261701333923,
        "alt_km": 587.0006696856699,
        "timestamp": "2025-12-13T03:42:11.669118+00:00",
        "meta_object_name": "COSMOS 2251 DEB",
        "meta_object_id": "1993-036AXJ",
        "meta_epoch": "2025-12-11T05:58:59.566656",
        "meta_mean_motion": 14.95837806,
        "meta_eccentricity": 0.00082013,
        "meta_inclination": 74.036,
        "meta_ra_of_asc_node": 337.1667,
        "meta_arg_of_pericenter": 3.2203,
        "meta_mean_anomaly": 356.9033,
        "meta_ephemeris_type": 0,
        "meta_classification_type": "U",
        "meta_norad_cat_id": 36047,
        "meta_element_set_no": 999,
        "meta_rev_at_epoch": 65917,
        "meta_bstar": 0.0036964515,
        "meta_mean_motion_dot": 0.00041538,
        "meta_mean_motion_ddot": 0,
        "tle_line1": "1 36047U 93036AXJ 25345.24930054  .00041538  00000+0  36965-2 0  9998",
        "tle_line2": "2 36047  74.0360 337.1667 0008201   3.2203 356.9033 14.95837806659174"
      },
      "geometry": {
        "type": "Point",
        "coordinates": [
          151.91261701333923,
          4.9086681476958764
        ]
      }
    },
    {
      "type": "Feature",
      "properties": {
        "norad_id": 36048,
        "name": "COSMOS 2251 DEB",
        "group": "cosmos-2251-debris",
        "lat": 16.74036698299276,
        "lon": -56.542976114890415,
        "alt_km": 749.2565010465305,
        "timestamp": "2025-12-13T03:42:11.669128+00:00",
        "meta_object_name": "COSMOS 2251 DEB",
        "meta_object_id": "1993-036AXK",
        "meta_epoch": "2025-12-10T07:51:23.656896",
        "meta_mean_motion": 14.3784538,
        "meta_eccentricity": 0.0026514,
        "meta_inclination": 74.0571,
        "meta_ra_of_asc_node": 303.7212,
        "meta_arg_of_pericenter": 354.2337,
        "meta_mean_anomaly": 156.0655,
        "meta_ephemeris_type": 0,
        "meta_classification_type": "U",
        "meta_norad_cat_id": 36048,
        "meta_element_set_no": 999,
        "meta_rev_at_epoch": 85467,
        "meta_bstar": 0.00048763,
        "meta_mean_motion_dot": 1.45e-05,
        "meta_mean_motion_ddot": 0,
        "tle_line1": "1 36048U 93036AXK 25344.32735714  .00001450  00000+0  48763-3 0  9992",
        "tle_line2": "2 36048  74.0571 303.7212 0026514 354.2337 156.0655 14.37845380854671"
      },
      "geometry": {
        "type": "Point",
        "coordinates": [
          -56.542976114890415,
          16.74036698299276
        ]
      }
    },
    {
      "type": "Feature",
      "properties": {
        "norad_id": 36049,
        "name": "COSMOS 2251 DEB",
        "group": "cosmos-2251-debris",
        "lat": 19.549330932610978,
        "lon": -67.44640249588265,
        "alt_km": 680.4818916462527,
        "timestamp": "2025-12-13T03:42:11.669138+00:00",
        "meta_object_name": "COSMOS 2251 DEB",
        "meta_object_id": "1993-036AXL",
        "meta_epoch": "2025-12-10T15:51:32.776128",
        "meta_mean_motion": 14.62096087,
        "meta_eccentricity": 0.0010896,
        "meta_inclination": 74.0301,
        "meta_ra_of_asc_node": 123.1637,
        "meta_arg_of_pericenter": 209.0948,
        "meta_mean_anomaly": 150.9613,
        "meta_ephemeris_type": 0,
        "meta_classification_type": "U",
        "meta_norad_cat_id": 36049,
        "meta_element_set_no": 999,
        "meta_rev_at_epoch": 85334,
        "meta_bstar": 0.0024714,
        "meta_mean_motion_dot": 0.00012422,
        "meta_mean_motion_ddot": 0,
        "tle_line1": "1 36049U 93036AXL 25344.66079602  .00012422  00000+0  24714-2 0  9997",
        "tle_line2": "2 36049  74.0301 123.1637 0010896 209.0948 150.9613 14.62096087853349"
      },
      "geometry": {
        "type": "Point",
        "coordinates": [
          -67.44640249588265,
          19.549330932610978
        ]
      }
    },
    {
      "type": "Feature",
      "properties": {
        "norad_id": 36050,
        "name": "COSMOS 2251 DEB",
        "group": "cosmos-2251-debris",
        "lat": -65.31928455650699,
        "lon": 154.63969648289907,
        "alt_km": 511.38739472439283,
        "timestamp": "2025-12-13T03:42:11.669148+00:00",
        "meta_object_name": "COSMOS 2251 DEB",
        "meta_object_id": "1993-036AXM",
        "meta_epoch": "2025-12-10T07:13:56.773056",
        "meta_mean_motion": 15.00978663,
        "meta_eccentricity": 0.0088905,
        "meta_inclination": 74.0317,
        "meta_ra_of_asc_node": 198.9901,
        "meta_arg_of_pericenter": 279.1661,
        "meta_mean_anomaly": 79.9477,
        "meta_ephemeris_type": 0,
        "meta_classification_type": "U",
        "meta_norad_cat_id": 36050,
        "meta_element_set_no": 999,
        "meta_rev_at_epoch": 66998,
        "meta_bstar": 0.00072759,
        "meta_mean_motion_dot": 0.00010072,
        "meta_mean_motion_ddot": 0,
        "tle_line1": "1 36050U 93036AXM 25344.30135154  .00010072  00000+0  72759-3 0  9997",
        "tle_line2": "2 36050  74.0317 198.9901 0088905 279.1661  79.9477 15.00978663669983"
      },
      "geometry": {
        "type": "Point",
        "coordinates": [
          154.63969648289907,
          -65.31928455650699
        ]
      }
    },
    {
      "type": "Feature",
      "properties": {
        "norad_id": 36053,
        "name": "COSMOS 2251 DEB",
        "group": "cosmos-2251-debris",
        "lat": 46.84856873846337,
        "lon": -46.089136374991234,
        "alt_km": 677.6771996781754,
        "timestamp": "2025-12-13T03:42:11.669181+00:00",
        "meta_object_name": "COSMOS 2251 DEB",
        "meta_object_id": "1993-036AXQ",
        "meta_epoch": "2025-12-12T04:02:28.675680",
        "meta_mean_motion": 14.57165244,
        "meta_eccentricity": 0.00326357,
        "meta_inclination": 73.8708,
        "meta_ra_of_asc_node": 153.7815,
        "meta_arg_of_pericenter": 103.0274,
        "meta_mean_anomaly": 257.4536,
        "meta_ephemeris_type": 0,
        "meta_classification_type": "U",
        "meta_norad_cat_id": 36053,
        "meta_element_set_no": 999,
        "meta_rev_at_epoch": 87436,
        "meta_bstar": 0.0023423536,
        "meta_mean_motion_dot": 0.00010633,
        "meta_mean_motion_ddot": 0,
        "tle_line1": "1 36053U 93036AXQ 25346.16838745  .00010633  00000+0  23424-2 0  9999",
        "tle_line2": "2 36053  73.8708 153.7815 0032635 103.0274 257.4536 14.57165244874367"
      },
      "geometry": {
        "type": "Point",
        "coordinates": [
          -46.089136374991234,
          46.84856873846337
        ]
      }
    },
    {
      "type": "Feature",
      "properties": {
        "norad_id": 36058,
        "name": "COSMOS 2251 DEB",
        "group": "cosmos-2251-debris",
        "lat": -70.9888339207585,
        "lon": -91.07422431393124,
        "alt_km": 705.6367070452688,
        "timestamp": "2025-12-13T03:42:11.669193+00:00",
        "meta_object_name": "COSMOS 2251 DEB",
        "meta_object_id": "1993-036AXV",
        "meta_epoch": "2025-12-09T21:09:28.031616",
        "meta_mean_motion": 14.58669067,
        "meta_eccentricity": 0.00447805,
        "meta_inclination": 74.0233,
        "meta_ra_of_asc_node": 38.9054,
        "meta_arg_of_pericenter": 173.9779,
        "meta_mean_anomaly": 186.1934,
        "meta_ephemeris_type": 0,
        "meta_classification_type": "U",
        "meta_norad_cat_id": 36058,
        "meta_element_set_no": 999,
        "meta_rev_at_epoch": 66069,
        "meta_bstar": 0.00079291916,
        "meta_mean_motion_dot": 3.72e-05,
        "meta_mean_motion_ddot": 0,
        "tle_line1": "1 36058U 93036AXV 25343.88157444  .00003720  00000+0  79292-3 0  9994",
        "tle_line2": "2 36058  74.0233  38.9054 0044780 173.9779 186.1934 14.58669067660699"
      },
      "geometry": {
        "type": "Point",
        "coordinates": [
          -91.07422431393124,
          -70.9888339207585
        ]
      }
    }
  ]
}